{"epoch":1784762836,"count":18316,"objects":[{"id":"42939","name":"COSMOS 2522 (GLONASS)","type":"PAYLOAD","l1":"1 42939U 17055A   26201.44027304  .00000084  00000-0  00000-0 0  9992","l2":"2 42939  64.0809 190.7524 0010885 240.6370 119.2556  2.13101801 68682"},{"id":"43508","name":"COSMOS 2527 (GLONASS)","type":"PAYLOAD","l1":"1 43508U 18053A   26201.40231311 -.00000049  00000-0  00000-0 0  9997","l2":"2 43508  65.5961  72.7996 0006344 227.3843 132.6293  2.13101992 62989"},{"id":"43687","name":"COSMOS 2529 (GLONASS)","type":"PAYLOAD","l1":"1 43687U 18086A   26201.49849141  .00000085  00000-0  00000-0 0  9995","l2":"2 43687  64.2975 191.4696 0011977 256.3144 103.5547  2.13101999 59991"},{"id":"44299","name":"COSMOS 2534 (GLONASS)","type":"PAYLOAD","l1":"1 44299U 19030A   26203.13389427  .00000093  00000-0  00000-0 0  9993","l2":"2 44299  64.3713 191.4397 0013438 275.2090  33.8854  2.13102306 55663"},{"id":"44850","name":"COSMOS 2544 (GLONASS)","type":"PAYLOAD","l1":"1 44850U 19088A   26199.93909424 -.00000038  00000-0  00000-0 0  9996","l2":"2 44850  65.5828  72.6716 0012050 253.1294 106.8089  2.13102904 51392"},{"id":"45358","name":"COSMOS 2545 (GLONASS)","type":"PAYLOAD","l1":"1 45358U 20018A   26201.07254601 -.00000083  00000-0  00000-0 0  9994","l2":"2 45358  64.3333 311.2627 0009901 230.0825 129.8537  2.13102411 49362"},{"id":"46805","name":"COSMOS 2547 (GLONASS)","type":"PAYLOAD","l1":"1 46805U 20075A   26201.26230815  .00000083  00000-0  00000-0 0  9996","l2":"2 46805  64.6016 191.3717 0009466 239.9348 119.9732  2.13099966 44612"},{"id":"52984","name":"COSMOS 2557 (GLONASS)","type":"PAYLOAD","l1":"1 52984U 22075A   26201.89567594 -.00000088  00000-0  00000-0 0  9995","l2":"2 52984  64.2766 313.2973 0010828 270.8513  89.0451  2.13102143 31439"},{"id":"54031","name":"COSMOS 2559 (GLONASS)","type":"PAYLOAD","l1":"1 54031U 22130A   26202.18464193 -.00000089  00000-0  00000-0 0  9997","l2":"2 54031  64.2489 313.3698 0013171 181.7048 178.3110  2.13101788 29411"},{"id":"54377","name":"COSMOS 2564 (GLONASS)","type":"PAYLOAD","l1":"1 54377U 22161A   26202.96626008  .00000094  00000-0  00000-0 0  9990","l2":"2 54377  64.7442 191.5572 0012170 224.6979 135.2103  2.13102079 28375"},{"id":"57517","name":"COSMOS 2569 (GLONASS)","type":"PAYLOAD","l1":"1 57517U 23114A   26202.50927394 -.00000053  00000-0  00000-0 0  9996","l2":"2 57517  65.3220  71.4633 0009466 295.3236  64.6448  2.13103851 22992"},{"id":"63130","name":"COSMOS 2584(GLONASS)","type":"PAYLOAD","l1":"1 63130U 25042A   26202.86533319 -.00000053  00000-0  00000-0 0  9995","l2":"2 63130  65.1046  71.6233 0005592 211.4404 148.5924  2.13103874 10784"},{"id":"65590","name":"COSMOS 2595 (GLONASS)","type":"PAYLOAD","l1":"1 65590U 25206B   26202.71196580 -.00000090  00000-0  00000-0 0  9999","l2":"2 65590  64.6120 313.7831 0011241 307.0070  51.3277  2.13101030  6640"}]}